STARLINK-2022           
1 47643U 21012Z   24256.50395186  .00074542  00000+0  49622-2 0  9992
2 47643  53.0555 330.0746 0001545  89.3048 270.8118 15.06462781198396
